NORAD_CAT_ID,OBJECT_NAME,OBJECT_TYPE,EPOCH,MEAN_MOTION,ECCENTRICITY,INCLINATION,RA_OF_ASC_NODE,ARG_OF_PERICENTER,MEAN_ANOMALY,BSTAR,MEAN_MOTION_DOT,MEAN_MOTION_DDOT,TLE_LINE0,TLE_LINE1,TLE_LINE2,SEMIMAJOR_AXIS,PERIOD,APOGEE,PERIGEE,DECAYED
49440.0,STARLINK-3105,PAYLOAD,2023-11-29 04:14:00,15.08847965,0.000157,53.2181,341.9374,97.8769,262.2401,0.00047464,7.276e-05,0.0,0 STARLINK-3105,1 49440U 21104AJ  23333.17639755  .00007276  00000-0  47464-3 0  9996,2 49440  53.2181 341.9374 0001570  97.8769 262.2401 15.08847965114458,6917.856,95.437,540.807,538.635,0.0
49440.0,STARLINK-3105,PAYLOAD,2023-11-29 07:24:47,15.08843576,0.0001728,53.2183,341.342,107.9177,252.2004,0.00057365,8.854e-05,0.0,0 STARLINK-3105,1 49440U 21104AJ  23333.30887885  .00008854  00000-0  57365-3 0  9994,2 49440  53.2183 341.3420 0001728 107.9177 252.2004 15.08843576113403,6917.869,95.437,540.93,538.539,0.0
49440.0,STARLINK-3105,PAYLOAD,2023-11-30 04:04:47,15.08843642,0.0001931,53.2178,337.4666,115.768,244.3512,-0.00017993,-3.151e-05,0.0,0 STARLINK-3105,1 49440U 21104AJ  23334.16998893 -.00003151  00000-0 -17993-3 0  9991,2 49440  53.2178 337.4666 0001931 115.7680 244.3512 15.08843642114600,6917.869,95.437,541.07,538.398,0.0
49440.0,STARLINK-3105,PAYLOAD,2023-12-01 05:30:58,15.08836529,0.0001881,53.2181,332.7108,111.7267,248.3926,0.00017081,2.431e-05,0.0,0 STARLINK-3105,1 49440U 21104AJ  23335.22983826  .00002431  00000-0  17081-3 0  9995,2 49440  53.2181 332.7108 0001881 111.7267 248.3926 15.08836529114760,6917.891,95.438,541.057,538.455,0.0
49440.0,STARLINK-3105,PAYLOAD,2023-12-01 07:06:20,15.08841764,0.0001718,53.2179,332.4142,104.5057,255.6126,7.0896e-05,8.4e-06,0.0,0 STARLINK-3105,1 49440U 21104AJ  23335.29607598  .00000840  00000-0  70896-4 0  9997,2 49440  53.2179 332.4142 0001718 104.5057 255.6126 15.08841764113701,6917.875,95.437,540.928,538.552,0.0
49440.0,STARLINK-3105,PAYLOAD,2023-12-02 05:21:44,15.08857772,0.0001958,53.2179,328.2519,84.9724,275.1491,0.00037145,5.631e-05,0.0,0 STARLINK-3105,1 49440U 21104AJ  23336.22342710  .00005631  00000-0  37145-3 0  9995,2 49440  53.2179 328.2519 0001958  84.9724 275.1491 15.08857772114912,6917.826,95.436,541.046,538.337,0.0
49440.0,STARLINK-3105,PAYLOAD,2023-12-03 03:37:07,15.0884666,0.0001736,53.2182,324.0881,118.5985,241.5182,4.8152e-05,4.78e-06,0.0,0 STARLINK-3105,1 49440U 21104AJ  23337.15078513  .00000478  00000-0  48152-4 0  9990,2 49440  53.2182 324.0881 0001736 118.5985 241.5182 15.08846660115053,6917.86,95.437,540.926,538.524,0.0
49440.0,STARLINK-3105,PAYLOAD,2023-12-03 08:23:17,15.08846668,0.0001712,53.2178,323.1947,102.8281,257.2903,1.436e-05,-6e-07,0.0,0 STARLINK-3105,1 49440U 21104AJ  23337.34950490 -.00000060  00000-0  14360-4 0  9996,2 49440  53.2178 323.1947 0001712 102.8281 257.2903 15.08846668114018,6917.86,95.437,540.909,538.541,0.0
49440.0,STARLINK-3105,PAYLOAD,2023-12-04 03:27:54,15.08831201,0.000264,53.2191,319.6197,136.5953,223.5247,-0.00024271,-4.148e-05,0.0,0 STARLINK-3105,1 49440U 21104AJ  23338.14438644 -.00004148  00000-0 -24271-3 0  9990,2 49440  53.2191 319.6197 0002640 136.5953 223.5247 15.08831201115207,6917.907,95.438,541.599,537.946,0.0
49440.0,STARLINK-3105,PAYLOAD,2023-12-04 06:38:41,15.08835346,0.0001851,53.2185,319.035,103.2059,256.914,-0.00019572,-3.401e-05,0.0,0 STARLINK-3105,1 49440U 21104AJ  23338.27687226 -.00003401  00000-0 -19572-3 0  9995,2 49440  53.2185 319.0350 0001851 103.2059 256.9140 15.08835346114155,6917.895,95.438,541.04,538.479,0.0
49440.0,STARLINK-3105,PAYLOAD,2023-12-05 04:54:06,15.08843401,0.0001626,53.2173,314.8768,103.3667,256.7507,0.00027795,4.139e-05,0.0,0 STARLINK-3105,1 49440U 21104AJ  23339.20423674  .00004139  00000-0  27795-3 0  9997,2 49440  53.2173 314.8768 0001626 103.3667 256.7507 15.08843401115364,6917.87,95.437,540.86,538.61,0.0
49440.0,STARLINK-3105,PAYLOAD,2023-12-05 22:23:20,15.08842993,0.0001604,53.2175,311.606,92.0191,268.0985,0.00028612,4.269e-05,0.0,0 STARLINK-3105,1 49440U 21104AJ  23339.93288030  .00004269  00000-0  28612-3 0  9995,2 49440  53.2175 311.6060 0001604  92.0191 268.0985 15.08842993114403,6917.871,95.437,540.846,538.627,0.0
49440.0,STARLINK-3105,PAYLOAD,2023-12-06 04:44:53,15.08844985,0.0001709,53.2176,310.4111,85.9918,274.127,0.00029353,4.387e-05,0.0,0 STARLINK-3105,1 49440U 21104AJ  23340.19784018  .00004387  00000-0  29353-3 0  9996,2 49440  53.2176 310.4111 0001709  85.9918 274.1270 15.08844985115513,6917.865,95.437,540.912,538.548,0.0
49440.0,STARLINK-3105,PAYLOAD,2023-12-06 22:14:08,15.0883389,0.0001908,53.2172,307.1408,88.3723,271.7487,0.00037528,5.689e-05,0.0,0 STARLINK-3105,1 49440U 21104AJ  23340.92648561  .00005689  00000-0  37528-3 0  9998,2 49440  53.2172 307.1408 0001908  88.3723 271.7487 15.08833890114552,6917.899,95.438,541.084,538.444,0.0
49440.0,STARLINK-3105,PAYLOAD,2023-12-07 04:35:40,15.08840729,0.0001796,53.2186,305.9519,98.9336,261.186,1.8997e-05,1.4e-07,0.0,0 STARLINK-3105,1 49440U 21104AJ  23341.19144047  .00000014  00000-0  18997-4 0  9995,2 49440  53.2186 305.9519 0001796  98.9336 261.1860 15.08840729115668,6917.878,95.438,540.986,538.501,0.0
49440.0,STARLINK-3105,PAYLOAD,2023-12-08 07:37:14,15.08838165,0.0001657,53.218,300.8923,104.5083,255.6093,1.7075e-05,-1.6e-07,0.0,0 STARLINK-3105,1 49440U 21104AJ  23342.31752436 -.00000016  00000-0  17075-4 0  9996,2 49440  53.2180 300.8923 0001657 104.5083 255.6093 15.08838165115830,6917.886,95.438,540.897,538.605,0.0
49440.0,STARLINK-3105,PAYLOAD,2023-12-09 02:41:51,15.0884342,0.0001511,53.2181,297.3255,94.3644,265.7521,0.00010661,1.409e-05,0.0,0 STARLINK-3105,1 49440U 21104AJ  23343.11239964  .00001409  00000-0  10661-3 0  9990,2 49440  53.2181 297.3255 0001511  94.3644 265.7521 15.08843420115958,6917.87,95.437,540.78,538.69,0.0
49440.0,STARLINK-3105,PAYLOAD,2023-12-10 05:43:25,15.08837376,0.0001449,53.2174,292.2717,83.298,276.8177,2.3824e-05,9.1e-07,0.0,0 STARLINK-3105,1 49440U 21104AJ  23344.23848861  .00000091  00000-0  23824-4 0  9998,2 49440  53.2174 292.2717 0001449  83.2980 276.8177 15.08837376116120,6917.888,95.438,540.756,538.751,0.0
49440.0,STARLINK-3105,PAYLOAD,2023-12-11 03:58:49,15.08838563,0.0001562,53.2174,288.1084,75.9675,284.1491,9.4072e-05,1.209e-05,0.0,0 STARLINK-3105,1 49440U 21104AJ  23345.16584634  .00001209  00000-0  94072-4 0  9991,2 49440  53.2174 288.1084 0001562  75.9675 284.1491 15.08838563115192,6917.885,95.438,540.83,538.669,0.0
49440.0,STARLINK-3105,PAYLOAD,2023-12-12 03:49:36,15.08839189,0.0001621,53.218,283.6485,75.0562,285.061,6.9212e-05,8.14e-06,0.0,0 STARLINK-3105,1 49440U 21104AJ  23346.15944878  .00000814  00000-0  69212-4 0  9990,2 49440  53.2180 283.6485 0001621  75.0562 285.0610 15.08839189116410,6917.883,95.438,540.869,538.626,0.0
49440.0,STARLINK-3105,PAYLOAD,2023-12-13 02:04:59,15.08848368,0.0001653,53.2181,279.486,73.23,286.8874,0.00011321,1.515e-05,0.0,0 STARLINK-3105,1 49440U 21104AJ  23347.08680160  .00001515  00000-0  11321-3 0  9990,2 49440  53.2181 279.4860 0001653  73.2300 286.8874 15.08848368116551,6917.855,95.437,540.863,538.576,0.0
49440.0,STARLINK-3105,PAYLOAD,2023-12-13 22:45:00,15.08844003,0.0001446,53.2175,275.6284,79.7665,280.3491,4.0656e-05,3.59e-06,0.0,0 STARLINK-3105,1 49440U 21104AJ  23347.94792430  .00000359  00000-0  40656-4 0  9998,2 49440  53.2175 275.6284 0001446  79.7665 280.3491 15.08844003115619,6917.868,95.437,540.733,538.733,0.0
49440.0,STARLINK-3105,PAYLOAD,2023-12-14 01:55:46,15.08847765,0.0001469,53.2183,275.0281,89.3129,270.8032,2.2335e-05,6.8e-07,0.0,0 STARLINK-3105,1 49440U 21104AJ  23348.08040118  .00000068  00000-0  22335-4 0  9994,2 49440  53.2183 275.0281 0001469  89.3129 270.8032 15.08847765116700,6917.857,95.437,540.738,538.705,0.0
49440.0,STARLINK-3105,PAYLOAD,2023-12-14 22:35:47,15.08840799,0.0001818,53.2194,271.1666,109.0566,251.0623,1.1073e-05,-1.12e-06,0.0,0 STARLINK-3105,1 49440U 21104AJ  23348.94152362 -.00000112  00000-0  11073-4 0  9992,2 49440  53.2194 271.1666 0001818 109.0566 251.0623 15.08840799115761,6917.878,95.438,541.001,538.485,0.0
49440.0,STARLINK-3105,PAYLOAD,2023-12-15 00:11:10,15.08845114,0.000159,53.2179,270.8605,93.8928,266.2246,-2.4348e-05,-6.76e-06,0.0,0 STARLINK-3105,1 49440U 21104AJ  23349.00776195 -.00000676  00000-0 -24348-4 0  9991,2 49440  53.2179 270.8605 0001590  93.8928 266.2246 15.08845114116847,6917.865,95.437,540.83,538.63,0.0
49440.0,STARLINK-3105,PAYLOAD,2023-12-15 22:26:36,15.08813047,0.0001696,53.2179,266.7012,100.2939,259.8244,9.6586e-05,1.248e-05,0.0,0 STARLINK-3105,1 49440U 21104AJ  23349.93514118  .00001248  00000-0  96586-4 0  9995,2 49440  53.2179 266.7012 0001696 100.2939 259.8244 15.08813047115918,6917.963,95.439,541.001,538.654,0.0
49440.0,STARLINK-3105,PAYLOAD,2023-12-16 01:37:21,15.08834734,0.0001934,53.2185,266.1048,110.1849,249.9352,-9.5935e-06,-4.41e-06,0.0,0 STARLINK-3105,1 49440U 21104AJ  23350.06761280 -.00000441  00000-0 -95935-5 0  9999,2 49440  53.2185 266.1048 0001934 110.1849 249.9352 15.08834734117001,6917.896,95.438,541.099,538.424,0.0
49440.0,STARLINK-3105,PAYLOAD,2023-12-16 14:20:26,15.0883126,0.0001846,53.2183,263.7268,105.2495,254.8701,0.00017961,2.571e-05,0.0,0 STARLINK-3105,1 49440U 21104AJ  23350.59752972  .00002571  00000-0  17961-3 0  9990,2 49440  53.2183 263.7268 0001846 105.2495 254.8701 15.08831260116014,6917.907,95.438,541.049,538.495,0.0
49440.0,STARLINK-3105,PAYLOAD,2023-12-16 22:17:22,15.08837567,0.000178,53.2179,262.2389,99.7761,260.3432,6.7048e-05,7.79e-06,0.0,0 STARLINK-3105,1 49440U 21104AJ  23350.92873205  .00000779  00000-0  67048-4 0  9990,2 49440  53.2179 262.2389 0001780  99.7761 260.3432 15.08837567116061,6917.888,95.438,540.984,538.521,0.0
49440.0,STARLINK-3105,PAYLOAD,2023-12-16 23:52:45,15.08838455,0.0001806,53.2179,261.9416,101.4656,258.6539,8.1629e-05,1.011e-05,0.0,0 STARLINK-3105,1 49440U 21104AJ  23350.99497144  .00001011  00000-0  81629-4 0  9992,2 49440  53.2179 261.9416 0001806 101.4656 258.6539 15.08838455116077,6917.885,95.438,540.999,538.501,0.0
